GLOBALSTAR M035         
1 25851U 99037A   24334.85387809 -.00000038  00000+0  97457-3 0  9999
2 25851  51.9911 139.4958 0014011  24.8124  77.0575 11.04535443 74233
GLOBALSTAR M032         
1 25852U 99037B   24334.96142176 -.00000111  00000+0 -14348-2 0  9998
2 25852  51.9979 338.1973 0010592 193.4428 166.6091 11.19054817112488
GLOBALSTAR M051         
1 25853U 99037C   24334.87559023 -.00000045  00000+0  65681-3 0  9994
2 25853  51.9756 161.7057 0001085 149.3213 210.7661 11.42199445109612
GLOBALSTAR M030         
1 25854U 99037D   24334.70772427 -.00000056  00000+0  41138-3 0  9995
2 25854  51.9902 340.9004 0003906  51.1900 308.9265 11.55100380126990
GLOBALSTAR M048         
1 25872U 99041A   24333.63454500 -.00000066  00000+0  11951-3 0  9991
2 25872  51.9363  91.9767 0013537 192.9635 180.1531 11.33852209102237
GLOBALSTAR M026         
1 25873U 99041B   24334.72848303 -.00000158  00000+0 -34470-2 0  9994
2 25873  52.0011 259.8323 0001111 317.7525  48.5453 11.06826100126409
GLOBALSTAR M043         
1 25874U 99041C   24334.93716675 -.00000016  00000+0  15578-2 0  9994
2 25874  51.9371 188.5928 0012806 337.1885 163.3151 11.25688260100434
GLOBALSTAR M028         
1 25875U 99041D   24334.66150315 -.00000066  00000+0  22521-3 0  9990
2 25875  51.9636  68.0098 0062963 358.6513   1.4170 12.50570920165216
